

*******************************************************************************
Ephemeris / WWW_USER Fri Mar 22 01:15:20 2024 Pasadena, USA      / Horizons
*******************************************************************************
Target body name: SOHO (spacecraft) (-21)         {source: SOHO_merged}
Center body name: Sun (10)                        {source: DE441}
Center-site name: BODY CENTER
*******************************************************************************
Start time      : A.D. 1995-Dec-02 00:02:00.0000 TDB
Stop  time      : A.D. 1995-Dec-05 00:00:00.0000 TDB
Step-size       : 1 minutes
*******************************************************************************
Center geodetic : 0.0, 0.0, 0.0                   {E-lon(deg),Lat(deg),Alt(km)}
Center cylindric: 0.0, 0.0, 0.0                   {E-lon(deg),Dxy(km),Dz(km)}
Center radii    : 695700.0, 695700.0, 695700.0 km {Equator_a, b, pole_c}
Output units    : KM-S
Calendar mode   : Gregorian
Output type     : GEOMETRIC cartesian states
Output format   : 2 (position and velocity)
Reference frame : ICRF
*******************************************************************************
            JDTDB,            Calendar Date (TDB),                      X,                      Y,                      Z,                     VX,                     VY,                     VZ,
**************************************************************************************************************************************************************************************************
$$SOE
2450054.247916667, A.D. 1995-Dec-02 17:57:00.0000,  5.004021899706690E+07,  1.271823316222101E+08,  5.512842471136178E+07, -2.938086900773662E+01,  7.091837353671238E+00,  2.752667676787847E+00,
2450054.248611111, A.D. 1995-Dec-02 17:58:00.0000,  5.003845617584449E+07,  1.271827571653335E+08,  5.512858989310773E+07, -2.937983932966213E+01,  7.092931548757598E+00,  2.753387336515722E+00,
2450054.249305556, A.D. 1995-Dec-02 17:59:00.0000,  5.003669341627509E+07,  1.271831827739960E+08,  5.512875511795799E+07, -2.937881339138579E+01,  7.094022272542015E+00,  2.754104845169445E+00,
2450054.250000000, A.D. 1995-Dec-02 18:00:00.0000,  5.003493071813402E+07,  1.271836084479890E+08,  5.512892038577949E+07, -2.937779117352923E+01,  7.095109540472159E+00,  2.754820212395903E+00,
2450054.250694444, A.D. 1995-Dec-02 18:01:00.0000,  5.003316808119828E+07,  1.271840341871051E+08,  5.512908569644041E+07, -2.937677265679029E+01,  7.096193367865715E+00,  2.755533447787678E+00,
2450054.251388889, A.D. 1995-Dec-02 18:02:00.0000,  5.003140550522368E+07,  1.271844599911231E+08,  5.512925104976860E+07, -2.937575782540877E+01,  7.097273771957680E+00,  2.756244560024322E+00,
2450054.252083333, A.D. 1995-Dec-02 18:03:00.0000,  5.002964299001528E+07,  1.271848858598544E+08,  5.512941644567997E+07, -2.937474665647318E+01,  7.098350765589536E+00,  2.756953559506776E+00,
2450054.252777778, A.D. 1995-Dec-02 18:04:00.0000,  5.002788053535783E+07,  1.271853117930968E+08,  5.512958188405189E+07, -2.937373913045800E+01,  7.099424363430807E+00,  2.757660455754738E+00,
2450054.253472222, A.D. 1995-Dec-02 18:05:00.0000,  5.002611814103716E+07,  1.271857377906492E+08,  5.512974736476220E+07, -2.937273522796981E+01,  7.100494580059611E+00,  2.758365258206568E+00,
2450054.254166667, A.D. 1995-Dec-02 18:06:00.0000,  5.002435580684040E+07,  1.271861638523113E+08,  5.512991288768989E+07, -2.937173492968966E+01,  7.101561429929837E+00,  2.759067976231181E+00,
2450054.254861111, A.D. 1995-Dec-02 18:07:00.0000,  5.002259353255600E+07,  1.271865899778839E+08,  5.513007845271489E+07, -2.937073821638844E+01,  7.102624927381306E+00,  2.759768619122442E+00,
2450054.255555556, A.D. 1995-Dec-02 18:08:00.0000,  5.002083131797338E+07,  1.271870161671684E+08,  5.513024405971785E+07, -2.936974506894352E+01,  7.103685086650632E+00,  2.760467196093786E+00,
2450054.256250000, A.D. 1995-Dec-02 18:09:00.0000,  5.001906916288290E+07,  1.271874424199668E+08,  5.513040970857988E+07, -2.936875546835623E+01,  7.104741921882420E+00,  2.761163716273270E+00,
2450054.256944444, A.D. 1995-Dec-02 18:10:00.0000,  5.001730706707565E+07,  1.271878687360819E+08,  5.513057539918239E+07, -2.936776939576951E+01,  7.105795447140445E+00,  2.761858188699201E+00,
2450054.257638889, A.D. 1995-Dec-02 18:11:00.0000,  5.001554503034332E+07,  1.271882951153166E+08,  5.513074113140678E+07, -2.936678683248510E+01,  7.106845676418488E+00,  2.762550622316543E+00,
2450054.258333333, A.D. 1995-Dec-02 18:12:00.0000,  5.001378305250277E+07,  1.271887215574963E+08,  5.513090690516916E+07, -2.936580775764691E+01,  7.107892622100271E+00,  2.763241026971864E+00,
2450054.259027778, A.D. 1995-Dec-02 18:13:00.0000,  5.001202113332018E+07,  1.271891480624017E+08,  5.513107272031338E+07, -2.936483215540543E+01,  7.108936299719409E+00,  2.763929410354313E+00,
2450054.259722222, A.D. 1995-Dec-02 18:14:00.0000,  5.001025927258584E+07,  1.271895746298345E+08,  5.513123857671633E+07, -2.936386000786642E+01,  7.109976723273324E+00,  2.764615781015963E+00,
2450054.260416667, A.D. 1995-Dec-02 18:15:00.0000,  5.000849747009100E+07,  1.271900012595978E+08,  5.513140447425548E+07, -2.936289129727406E+01,  7.111013906673317E+00,  2.765300147443470E+00,
2450054.261111111, A.D. 1995-Dec-02 18:16:00.0000,  5.000673572562752E+07,  1.271904279514948E+08,  5.513157041280813E+07, -2.936192600605380E+01,  7.112047863772580E+00,  2.765982518045106E+00,
2450054.261805556, A.D. 1995-Dec-02 18:17:00.0000,  5.000497403898798E+07,  1.271908547053299E+08,  5.513173639225169E+07, -2.936096411680582E+01,  7.113078608361658E+00,  2.766662901158849E+00,
2450054.262500000, A.D. 1995-Dec-02 18:18:00.0000,  5.000321240996576E+07,  1.271912815209081E+08,  5.513190241246372E+07, -2.936000561229744E+01,  7.114106154163185E+00,  2.767341305060962E+00,
2450054.263194445, A.D. 1995-Dec-02 18:19:00.0000,  5.000145083835520E+07,  1.271917083980355E+08,  5.513206847332212E+07, -2.935905047545403E+01,  7.115130514826130E+00,  2.768017737974870E+00,
2450054.263888889, A.D. 1995-Dec-02 18:20:00.0000,  4.999968932395170E+07,  1.271921353365193E+08,  5.513223457470530E+07, -2.935809868934935E+01,  7.116151703919698E+00,  2.768692208080107E+00,
2450054.264583333, A.D. 1995-Dec-02 18:21:00.0000,  4.999792786655189E+07,  1.271925623361679E+08,  5.513240071649226E+07, -2.935715023719507E+01,  7.117169734927153E+00,  2.769364723521127E+00,
2450054.265277778, A.D. 1995-Dec-02 18:22:00.0000,  4.999616646593603E+07,  1.271929893967687E+08,  5.513256689854196E+07, -2.935620510289802E+01,  7.118184621761604E+00,  2.770035292093461E+00,
2450054.265972222, A.D. 1995-Dec-02 18:23:00.0000,  4.999440512192230E+07,  1.271934165181566E+08,  5.513273312075738E+07, -2.935526326930900E+01,  7.119196377160947E+00,  2.770703922239389E+00,
2450054.266666667, A.D. 1995-Dec-02 18:24:00.0000,  4.999264383431332E+07,  1.271938437001464E+08,  5.513289938302241E+07, -2.935432471993190E+01,  7.120205014262805E+00,  2.771370622079154E+00,
2450054.267361111, A.D. 1995-Dec-02 18:25:00.0000,  4.999088260291276E+07,  1.271942709425538E+08,  5.513306568522147E+07, -2.935338943838475E+01,  7.121210546113948E+00,  2.772035399717351E+00,
2450054.268055555, A.D. 1995-Dec-02 18:26:00.0000,  4.998912142752563E+07,  1.271946982451955E+08,  5.513323202723980E+07, -2.935245740838190E+01,  7.122212985658779E+00,  2.772698263252920E+00,
2450054.268750000, A.D. 1995-Dec-02 18:27:00.0000,  4.998736030795824E+07,  1.271951256078894E+08,  5.513339840896354E+07, -2.935152861372845E+01,  7.123212345739092E+00,  2.773359220781508E+00,
2450054.269444444, A.D. 1995-Dec-02 18:28:00.0000,  4.998559924401808E+07,  1.271955530304541E+08,  5.513356483027957E+07, -2.935060303831532E+01,  7.124208639094602E+00,  2.774018280396708E+00,
2450054.270138889, A.D. 1995-Dec-02 18:29:00.0000,  4.998383823551381E+07,  1.271959805127090E+08,  5.513373129107552E+07, -2.934968066611519E+01,  7.125201878364156E+00,  2.774675450190148E+00,
2450054.270833333, A.D. 1995-Dec-02 18:30:00.0000,  4.998207728225519E+07,  1.271964080544742E+08,  5.513389779123967E+07, -2.934876148117935E+01,  7.126192076087708E+00,  2.775330738250381E+00,
2450054.271527778, A.D. 1995-Dec-02 18:31:00.0000,  4.998031638405295E+07,  1.271968356555703E+08,  5.513406433066091E+07, -2.934784546763540E+01,  7.127179244708992E+00,  2.775984152660553E+00,
2450054.272222222, A.D. 1995-Dec-02 18:32:00.0000,  4.997855554072352E+07,  1.271972633158338E+08,  5.513423090923753E+07, -2.934693261048418E+01,  7.128163397392353E+00,  2.776635700205651E+00,
2450054.272916667, A.D. 1995-Dec-02 18:33:00.0000,  4.997679475207435E+07,  1.271976910350694E+08,  5.513439752684993E+07, -2.934602289315353E+01,  7.129144545533770E+00,  2.777285390318976E+00,
2450054.273611111, A.D. 1995-Dec-02 18:34:00.0000,  4.997503401791824E+07,  1.271981188130969E+08,  5.513456418338746E+07, -2.934511629991577E+01,  7.130122701228601E+00,  2.777933231172564E+00,
2450054.274305556, A.D. 1995-Dec-02 18:35:00.0000,  4.997327333806881E+07,  1.271985466497368E+08,  5.513473087874006E+07, -2.934421281514604E+01,  7.131097876519050E+00,  2.778579230871211E+00,
2450054.275000000, A.D. 1995-Dec-02 18:36:00.0000,  4.997151271234050E+07,  1.271989745448100E+08,  5.513489761279812E+07, -2.934331242331304E+01,  7.132070083387394E+00,  2.779223397464369E+00,
2450054.275694444, A.D. 1995-Dec-02 18:37:00.0000,  4.996975214054836E+07,  1.271994024981375E+08,  5.513506438545245E+07, -2.934241510898616E+01,  7.133039333765560E+00,  2.779865738931867E+00,
2450054.276388889, A.D. 1995-Dec-02 18:38:00.0000,  4.996799162250812E+07,  1.271998305095411E+08,  5.513523119659427E+07, -2.934152085684296E+01,  7.134005639544180E+00,  2.780506263170186E+00,
2450054.277083333, A.D. 1995-Dec-02 18:39:00.0000,  4.996623115803623E+07,  1.272002585788428E+08,  5.513539804611522E+07, -2.934062965167636E+01,  7.134969012580890E+00,  2.781144977979724E+00,
